{
    "links": {
        "self": "http://www.neowsapp.com/rest/v1/neo/3788039?api_key=iIulBulltgU6a56xZRHN4H3l9WmuAYTsLGpBGhQ2"
    },
    "id": "3788039",
    "neo_reference_id": "3788039",
    "name": "(2017 UV5)",
    "designation": "2017 UV5",
    "nasa_jpl_url": "http://ssd.jpl.nasa.gov/sbdb.cgi?sstr=3788039",
    "absolute_magnitude_h": 21.4,
    "estimated_diameter": {
        "kilometers": {
            "estimated_diameter_min": 0.1394938229,
            "estimated_diameter_max": 0.3119176705
        },
        "meters": {
            "estimated_diameter_min": 139.4938229344,
            "estimated_diameter_max": 311.9176705226
        },
        "miles": {
            "estimated_diameter_min": 0.0866774163,
            "estimated_diameter_max": 0.1938165949
        },
        "feet": {
            "estimated_diameter_min": 457.6569140361,
            "estimated_diameter_max": 1023.3519701574
        }
    },
    "is_potentially_hazardous_asteroid": false,
    "close_approach_data": [
        {
            "close_approach_date": "2013-09-29",
            "close_approach_date_full": "2013-Sep-29 21:45",
            "epoch_date_close_approach": 1380491100000,
            "relative_velocity": {
                "kilometers_per_second": "8.4373724546",
                "kilometers_per_hour": "30374.540836473",
                "miles_per_hour": "18873.5584436407"
            },
            "miss_distance": {
                "astronomical": "0.3877287443",
                "lunar": "150.8264815327",
                "kilometers": "58003394.285054641",
                "miles": "36041637.9357744058"
            },
            "orbiting_body": "Earth"
        },
        {
            "close_approach_date": "2017-10-10",
            "close_approach_date_full": "2017-Oct-10 19:24",
            "epoch_date_close_approach": 1507663440000,
            "relative_velocity": {
                "kilometers_per_second": "7.4925686504",
                "kilometers_per_hour": "26973.2471415391",
                "miles_per_hour": "16760.1268141414"
            },
            "miss_distance": {
                "astronomical": "0.3705079077",
                "lunar": "144.1275760953",
                "kilometers": "55427193.810076599",
                "miles": "34440861.1896271062"
            },
            "orbiting_body": "Earth"
        }
    ],
    "orbital_data": {
        "orbit_id": "7",
        "orbit_determination_date": "2018-02-10 07:09:19",
        "first_observation_date": "2017-10-16",
        "last_observation_date": "2017-11-22",
        "data_arc_in_days": 37,
        "observations_used": 49,
        "orbit_uncertainty": "6",
        "minimum_orbit_intersection": ".329794",
        "jupiter_tisserand_invariant": "3.258",
        "epoch_osculation": "2459000.5",
        "eccentricity": ".486502968789216",
        "semi_major_axis": "2.490236084462463",
        "inclination": "14.90024863359339",
        "ascending_node_longitude": "42.46213619487054",
        "orbital_period": "1435.354614192846",
        "perihelion_distance": "1.278728836385442",
        "perihelion_argument": "314.3005769929084",
        "aphelion_distance": "3.701743332539484",
        "perihelion_time": "2459439.202146339295",
        "mean_anomaly": "249.9695091927108",
        "mean_motion": ".2508091007199928",
        "equinox": "J2000",
        "orbit_class": {
            "orbit_class_type": "AMO",
            "orbit_class_description": "Near-Earth asteroid orbits similar to that of 1221 Amor",
            "orbit_class_range": "1.017 AU < q (perihelion) < 1.3 AU"
        }
    },
    "is_sentry_object": false
}